CTC2_L_00668001-01
1 39327U 26230UV  26037.47799769  .00000000  00000+0  00000-0 0  9992
2 39327  50.0000   0.0000 0000000   0.0000   0.0000  1.97017133    14
CTC2_L_00668001-02
1 39328U 22218AK  26037.47799769  .00000000  00000+0  00000-0 0  9995
2 39328  50.0000   0.0000 0000000   0.0000  36.0000  1.97017133    14
CTC2_L_00668001-03
1 39329U 26145LY  26037.47799769  .00000000  00000+0  00000-0 0  9999
2 39329  50.0000   0.0000 0000000   0.0000  72.0000  1.97017133    15
CTC2_L_00668001-04
1 39330U 26558P   26037.47799769  .00000000  00000+0  00000-0 0  9999
2 39330  50.0000   0.0000 0000000   0.0000 108.0000  1.97017133    17
CTC2_L_00668001-05
1 39331U 26073ZX  26037.47799769  .00000000  00000+0  00000-0 0  9992
2 39331  50.0000   0.0000 0000000   0.0000 144.0000  1.97017133    18
CTC2_L_00668001-06
1 39332U 22195WV  26037.47799769  .00000000  00000+0  00000-0 0  9994
2 39332  50.0000   0.0000 0000000   0.0000 180.0000  1.97017133    19
CTC2_L_00668001-07
1 39333U 26723KB  26037.47799769  .00000000  00000+0  00000-0 0  9996
2 39333  50.0000   0.0000 0000000   0.0000 216.0000  1.97017133    10
CTC2_L_00668001-08
1 39334U 25139GL  26037.47799769  .00000000  00000+0  00000-0 0  9997
2 39334  50.0000   0.0000 0000000   0.0000 252.0000  1.97017133    11
CTC2_L_00668001-09
1 39335U 26544CZ  26037.47799769  .00000000  00000+0  00000-0 0  9999
2 39335  50.0000   0.0000 0000000   0.0000 288.0000  1.97017133    11
CTC2_L_00668001-10
1 39336U 23090MC  26037.47799769  .00000000  00000+0  00000-0 0  9993
2 39336  50.0000   0.0000 0000000   0.0000 324.0000  1.97017133    13
CTC2_L_00668002-01
1 39337U 24985KS  26037.47799769  .00000000  00000+0  00000-0 0  9998
2 39337  50.0000  30.0000 0000000   0.0000  12.0000  1.97017133    11
CTC2_L_00668002-02
1 39338U 24220SU  26037.47799769  .00000000  00000+0  00000-0 0  9991
2 39338  50.0000  30.0000 0000000   0.0000  48.0000  1.97017133    11
CTC2_L_00668002-03
1 39339U 23530BJ  26037.47799769  .00000000  00000+0  00000-0 0  9995
2 39339  50.0000  30.0000 0000000   0.0000  84.0000  1.97017133    12
CTC2_L_00668002-04
1 39340U 24186XH  26037.47799769  .00000000  00000+0  00000-0 0  9995
2 39340  50.0000  30.0000 0000000   0.0000 120.0000  1.97017133    15
CTC2_L_00668002-05
1 39341U 23606RA  26037.47799769  .00000000  00000+0  00000-0 0  9992
2 39341  50.0000  30.0000 0000000   0.0000 156.0000  1.97017133    15
CTC2_L_00668002-06
1 39342U 24894JP  26037.47799769  .00000000  00000+0  00000-0 0  9993
2 39342  50.0000  30.0000 0000000   0.0000 192.0000  1.97017133    16
CTC2_L_00668002-07
1 39343U 26376YF  26037.47799769  .00000000  00000+0  00000-0 0  9991
2 39343  50.0000  30.0000 0000000   0.0000 228.0000  1.97017133    17
CTC2_L_00668002-08
1 39344U 22897DA  26037.47799769  .00000000  00000+0  00000-0 0  9996
2 39344  50.0000  30.0000 0000000   0.0000 264.0000  1.97017133    18
CTC2_L_00668002-09
1 39345U 25301NL  26037.47799769  .00000000  00000+0  00000-0 0  9990
2 39345  50.0000  30.0000 0000000   0.0000 300.0000  1.97017133    10
CTC2_L_00668002-10
1 39346U 25233PH  26037.47799769  .00000000  00000+0  00000-0 0  9995
2 39346  50.0000  30.0000 0000000   0.0000 336.0000  1.97017133    10
CTC2_L_00668003-01
1 39347U 23652VY  26037.47799769  .00000000  00000+0  00000-0 0  9999
2 39347  50.0000  60.0000 0000000   0.0000  24.0000  1.97017133    18
CTC2_L_00668003-02
1 39348U 25094RZ  26037.47799769  .00000000  00000+0  00000-0 0  9992
2 39348  50.0000  60.0000 0000000   0.0000  60.0000  1.97017133    19
CTC2_L_00668003-03
1 39349U 24986WH  26037.47799769  .00000000  00000+0  00000-0 0  9992
2 39349  50.0000  60.0000 0000000   0.0000  96.0000  1.97017133    19
CTC2_L_00668003-04
1 39350U 26559AI  26037.47799769  .00000000  00000+0  00000-0 0  9992
2 39350  50.0000  60.0000 0000000   0.0000 132.0000  1.97017133    12
CTC2_L_00668003-05
1 39351U 25856CJ  26037.47799769  .00000000  00000+0  00000-0 0  9992
2 39351  50.0000  60.0000 0000000   0.0000 168.0000  1.97017133    12
CTC2_L_00668003-06
1 39352U 24450AR  26037.47799769  .00000000  00000+0  00000-0 0  9992
2 39352  50.0000  60.0000 0000000   0.0000 204.0000  1.97017133    14
CTC2_L_00668003-07
1 39353U 24997UQ  26037.47799769  .00000000  00000+0  00000-0 0  9999
2 39353  50.0000  60.0000 0000000   0.0000 240.0000  1.97017133    15
CTC2_L_00668003-08
1 39354U 24448VK  26037.47799769  .00000000  00000+0  00000-0 0  9991
2 39354  50.0000  60.0000 0000000   0.0000 276.0000  1.97017133    15
CTC2_L_00668003-09
1 39355U 22957WC  26037.47799769  .00000000  00000+0  00000-0 0  9995
2 39355  50.0000  60.0000 0000000   0.0000 312.0000  1.97017133    17
CTC2_L_00668003-10
1 39356U 22302HF  26037.47799769  .00000000  00000+0  00000-0 0  9990
2 39356  50.0000  60.0000 0000000   0.0000 348.0000  1.97017133    17
CTC2_L_00668004-01
1 39357U 23814ZF  26037.47799769  .00000000  00000+0  00000-0 0  9990
2 39357  50.0000  90.0000 0000000   0.0000  36.0000  1.97017133    15
CTC2_L_00668004-02
1 39358U 22430HH  26037.47799769  .00000000  00000+0  00000-0 0  9994
2 39358  50.0000  90.0000 0000000   0.0000  72.0000  1.97017133    16
CTC2_L_00668004-03
1 39359U 23095PP  26037.47799769  .00000000  00000+0  00000-0 0  9993
2 39359  50.0000  90.0000 0000000   0.0000 108.0000  1.97017133    17
CTC2_L_00668004-04
1 39360U 23154BC  26037.47799769  .00000000  00000+0  00000-0 0  9991
2 39360  50.0000  90.0000 0000000   0.0000 144.0000  1.97017133    19
CTC2_L_00668004-05
1 39361U 24090XU  26037.47799769  .00000000  00000+0  00000-0 0  9992
2 39361  50.0000  90.0000 0000000   0.0000 180.0000  1.97017133    10
CTC2_L_00668004-06
1 39362U 24065ZQ  26037.47799769  .00000000  00000+0  00000-0 0  9995
2 39362  50.0000  90.0000 0000000   0.0000 216.0000  1.97017133    11
CTC2_L_00668004-07
1 39363U 23678ZQ  26037.47799769  .00000000  00000+0  00000-0 0  9995
2 39363  50.0000  90.0000 0000000   0.0000 252.0000  1.97017133    12
CTC2_L_00668004-08
1 39364U 26398VE  26037.47799769  .00000000  00000+0  00000-0 0  9998
2 39364  50.0000  90.0000 0000000   0.0000 288.0000  1.97017133    12
CTC2_L_00668004-09
1 39365U 22404HJ  26037.47799769  .00000000  00000+0  00000-0 0  9993
2 39365  50.0000  90.0000 0000000   0.0000 324.0000  1.97017133    14
CTC2_L_00668004-10
1 39366U 22031NU  26037.47799769  .00000000  00000+0  00000-0 0  9990
2 39366  50.0000  90.0000 0000000   0.0000   0.0000  1.97017133    16
CTC2_L_00668005-01
1 39367U 25645VK  26037.47799769  .00000000  00000+0  00000-0 0  9995
2 39367  50.0000 120.0000 0000000   0.0000  48.0000  1.97017133    13
CTC2_L_00668005-02
1 39368U 25171GW  26037.47799769  .00000000  00000+0  00000-0 0  9990
2 39368  50.0000 120.0000 0000000   0.0000  84.0000  1.97017133    14
CTC2_L_00668005-03
1 39369U 24189EG  26037.47799769  .00000000  00000+0  00000-0 0  9999
2 39369  50.0000 120.0000 0000000   0.0000 120.0000  1.97017133    16
CTC2_L_00668005-04
1 39370U 24147HG  26037.47799769  .00000000  00000+0  00000-0 0  9995
2 39370  50.0000 120.0000 0000000   0.0000 156.0000  1.97017133    17
CTC2_L_00668005-05
1 39371U 24100DM  26037.47799769  .00000000  00000+0  00000-0 0  9995
2 39371  50.0000 120.0000 0000000   0.0000 192.0000  1.97017133    18
CTC2_L_00668005-06
1 39372U 23594AD  26037.47799769  .00000000  00000+0  00000-0 0  9992
2 39372  50.0000 120.0000 0000000   0.0000 228.0000  1.97017133    19
CTC2_L_00668005-07
1 39373U 26853PP  26037.47799769  .00000000  00000+0  00000-0 0  9994
2 39373  50.0000 120.0000 0000000   0.0000 264.0000  1.97017133    10
CTC2_L_00668005-08
1 39374U 24696GO  26037.47799769  .00000000  00000+0  00000-0 0  9998
2 39374  50.0000 120.0000 0000000   0.0000 300.0000  1.97017133    12
CTC2_L_00668005-09
1 39375U 25360HQ  26037.47799769  .00000000  00000+0  00000-0 0  9998
2 39375  50.0000 120.0000 0000000   0.0000 336.0000  1.97017133    12
CTC2_L_00668005-10
1 39376U 23270RR  26037.47799769  .00000000  00000+0  00000-0 0  9997
2 39376  50.0000 120.0000 0000000   0.0000  12.0000  1.97017133    14
CTC2_L_00668006-01
1 39377U 22673YO  26037.47799769  .00000000  00000+0  00000-0 0  9994
2 39377  50.0000 150.0000 0000000   0.0000  60.0000  1.97017133    11
CTC2_L_00668006-02
1 39378U 24304NH  26037.47799769  .00000000  00000+0  00000-0 0  9998
2 39378  50.0000 150.0000 0000000   0.0000  96.0000  1.97017133    11
CTC2_L_00668006-03
1 39379U 23645MJ  26037.47799769  .00000000  00000+0  00000-0 0  9996
2 39379  50.0000 150.0000 0000000   0.0000 132.0000  1.97017133    13
CTC2_L_00668006-04
1 39380U 25576ZZ  26037.47799769  .00000000  00000+0  00000-0 0  9993
2 39380  50.0000 150.0000 0000000   0.0000 168.0000  1.97017133    14
CTC2_L_00668006-05
1 39381U 24039YT  26037.47799769  .00000000  00000+0  00000-0 0  9997
2 39381  50.0000 150.0000 0000000   0.0000 204.0000  1.97017133    16
CTC2_L_00668006-06
1 39382U 24599ZO  26037.47799769  .00000000  00000+0  00000-0 0  9999
2 39382  50.0000 150.0000 0000000   0.0000 240.0000  1.97017133    17
CTC2_L_00668006-07
1 39383U 22061VN  26037.47799769  .00000000  00000+0  00000-0 0  9992
2 39383  50.0000 150.0000 0000000   0.0000 276.0000  1.97017133    17
CTC2_L_00668006-08
1 39384U 25605OY  26037.47799769  .00000000  00000+0  00000-0 0  9990
2 39384  50.0000 150.0000 0000000   0.0000 312.0000  1.97017133    19
CTC2_L_00668006-09
1 39385U 22363VB  26037.47799769  .00000000  00000+0  00000-0 0  9999
2 39385  50.0000 150.0000 0000000   0.0000 348.0000  1.97017133    19
CTC2_L_00668006-10
1 39386U 24224EC  26037.47799769  .00000000  00000+0  00000-0 0  9998
2 39386  50.0000 150.0000 0000000   0.0000  24.0000  1.97017133    11
CTC2_L_00668007-01
1 39387U 25936RR  26037.47799769  .00000000  00000+0  00000-0 0  9990
2 39387  50.0000 180.0000 0000000   0.0000  72.0000  1.97017133    18
CTC2_L_00668007-02
1 39388U 23408UT  26037.47799769  .00000000  00000+0  00000-0 0  9993
2 39388  50.0000 180.0000 0000000   0.0000 108.0000  1.97017133    19
